[
    {
        "Altitude(m)": 617710.633522971,
        "Argument of Periapsis(deg)": 0.0,
        "Eccentricity": 0.0,
        "Inclination(deg)": 60.0,
        "Latitude(deg)": -41.10264352544694,
        "Longitude(deg)": 129.96660990787794,
        "Mean Anomaly(deg)": -49.09089999999994,
        "RAAN(deg)": 260.0,
        "Satellite Name": "Test1 1163",
        "Satellite Number": 1163,
        "Semi-Major Axis(m)": 6980739.136638005,
        "Time(s)": 0
    },
    {
        "Altitude(m)": 617517.9321051284,
        "Argument of Periapsis(deg)": 0.00010418945913296404,
        "Eccentricity": 0.0,
        "Inclination(deg)": 60.0,
        "Latitude(deg)": -40.63685068018935,
        "Longitude(deg)": 130.46340372059478,
        "Mean Anomaly(deg)": -48.470793854538094,
        "RAAN(deg)": 259.99957995086027,
        "Satellite Name": "Test1 1163",
        "Satellite Number": 1163,
        "Semi-Major Axis(m)": 6980739.136638005,
        "Time(s)": 10
    }
]